[{"OBJECT_NAME":"TIANMU-1 21","OBJECT_ID":"2023-208C","EPOCH":"2026-03-09T21:48:13.065120","MEAN_MOTION":15.33041299,"ECCENTRICITY":0.00059807,"INCLINATION":97.4378,"RA_OF_ASC_NODE":187.7048,"ARG_OF_PERICENTER":317.2488,"MEAN_ANOMALY":42.8288,"EPHEMERIS_TYPE":0,"CLASSIFICATION_TYPE":"U","NORAD_CAT_ID":58662,"ELEMENT_SET_NO":999,"REV_AT_EPOCH":12234,"BSTAR":0.00040063782,"MEAN_MOTION_DOT":0.00012722,"MEAN_MOTION_DDOT":0},{"OBJECT_NAME":"STARLINK-35599","OBJECT_ID":"2025-236S","EPOCH":"2026-03-09T12:04:05.315520","MEAN_MOTION":15.30135876,"ECCENTRICITY":0.00012844,"INCLINATION":53.1587,"RA_OF_ASC_NODE":104.9039,"ARG_OF_PERICENTER":63.9084,"MEAN_ANOMALY":296.2049,"EPHEMERIS_TYPE":0,"CLASSIFICATION_TYPE":"U","NORAD_CAT_ID":66102,"ELEMENT_SET_NO":999,"REV_AT_EPOCH":2285,"BSTAR":0.00053310275,"MEAN_MOTION_DOT":0.00015432,"MEAN_MOTION_DDOT":0}]
